{"type": "FeatureCollection", "features": [ {"type": "Feature", "properties": {"norad_id": 65304, "name": "DRAGON CRS-33", "group": "stations", "lat": -49.98571826417941, "lon": 46.65601779119297, "alt_km": 420.307556219409, "timestamp": "2025-12-17T19:34:06.822685+00:00", "meta": {"OBJECT_NAME": "DRAGON CRS-33", "OBJECT_ID": "2025-186A", "EPOCH": "2025-12-17T01:19:48.717408", "MEAN_MOTION": 15.49629327, "ECCENTRICITY": 0.00031735, "INCLINATION": 51.6309, "RA_OF_ASC_NODE": 121.1077, "ARG_OF_PERICENTER": 260.4156, "MEAN_ANOMALY": 99.6474, "EPHEMERIS_TYPE": 0, "CLASSIFICATION_TYPE": "U", "NORAD_CAT_ID": 65304, "ELEMENT_SET_NO": 999, "REV_AT_EPOCH": 11, "BSTAR": 0.00014583435, "MEAN_MOTION_DOT": 7.77e-05, "MEAN_MOTION_DDOT": 0}, "tle": {"line1": "1 65304U 25186A   25351.05542497  .00007770  00000+0  14583-3 0  9996", "line2": "2 65304  51.6309 121.1077 0003173 260.4156  99.6474 15.49629327   110"}}, "geometry": {"type": "Point", "coordinates": [46.65601779119297, -49.98571826417941]}}, {"type": "Feature", "properties": {"norad_id": 65586, "name": "PROGRESS-MS 32", "group": "stations", "lat": -49.985718096888725, "lon": 46.65601875995773, "alt_km": 420.3075562225986, "timestamp": "2025-12-17T19:34:06.822695+00:00", "meta": {"OBJECT_NAME": "PROGRESS-MS 32", "OBJECT_ID": "2025-204A", "EPOCH": "2025-12-17T01:19:48.717408", "MEAN_MOTION": 15.49629327, "ECCENTRICITY": 0.00031735, "INCLINATION": 51.6309, "RA_OF_ASC_NODE": 121.1077, "ARG_OF_PERICENTER": 260.4156, "MEAN_ANOMALY": 99.6474, "EPHEMERIS_TYPE": 0, "CLASSIFICATION_TYPE": "U", "NORAD_CAT_ID": 65586, "ELEMENT_SET_NO": 999, "REV_AT_EPOCH": 27, "BSTAR": 0.00014583435, "MEAN_MOTION_DOT": 7.77e-05, "MEAN_MOTION_DDOT": 0}, "tle": {"line1": "1 65586U 25204A   25351.05542497  .00007770  00000+0  14583-3 0  9999", "line2": "2 65586  51.6309 121.1077 0003173 260.4156  99.6474 15.49629327   279"}}, "geometry": {"type": "Point", "coordinates": [46.65601875995773, -49.985718096888725]}}, {"type": "Feature", "properties": {"norad_id": 65616, "name": "CYGNUS NG-23", "group": "stations", "lat": -49.985717929598664, "lon": 46.6560197287188, "alt_km": 420.30755622578727, "timestamp": "2025-12-17T19:34:06.822705+00:00", "meta": {"OBJECT_NAME": "CYGNUS NG-23", "OBJECT_ID": "2025-208A", "EPOCH": "2025-12-17T01:19:48.717408", "MEAN_MOTION": 15.49629327, "ECCENTRICITY": 0.00031735, "INCLINATION": 51.6309, "RA_OF_ASC_NODE": 121.1077, "ARG_OF_PERICENTER": 260.4156, "MEAN_ANOMALY": 99.6474, "EPHEMERIS_TYPE": 0, "CLASSIFICATION_TYPE": "U", "NORAD_CAT_ID": 65616, "ELEMENT_SET_NO": 999, "REV_AT_EPOCH": 22, "BSTAR": 0.00014583435, "MEAN_MOTION_DOT": 7.77e-05, "MEAN_MOTION_DDOT": 0}, "tle": {"line1": "1 65616U 25208A   25351.05542497  .00007770  00000+0  14583-3 0  9997", "line2": "2 65616  51.6309 121.1077 0003173 260.4156  99.6474 15.49629327   228"}}, "geometry": {"type": "Point", "coordinates": [46.6560197287188, -49.985717929598664]}}, {"type": "Feature", "properties": {"norad_id": 65729, "name": "DRAGONFLY", "group": "stations", "lat": -26.769566888119044, "lon": 86.17149066568724, "alt_km": 347.57539869475386, "timestamp": "2025-12-17T19:34:06.822715+00:00", "meta": {"OBJECT_NAME": "DRAGONFLY", "OBJECT_ID": "1998-067XH", "EPOCH": "2025-12-16T13:13:48.986688", "MEAN_MOTION": 15.7319978, "ECCENTRICITY": 0.00071179, "INCLINATION": 51.6242, "RA_OF_ASC_NODE": 116.2265, "ARG_OF_PERICENTER": 302.756, "MEAN_ANOMALY": 57.2752, "EPHEMERIS_TYPE": 0, "CLASSIFICATION_TYPE": "U", "NORAD_CAT_ID": 65729, "ELEMENT_SET_NO": 999, "REV_AT_EPOCH": 1376, "BSTAR": 0.0010910742, "MEAN_MOTION_DOT": 0.00155828, "MEAN_MOTION_DDOT": 0}, "tle": {"line1": "1 65729U 98067XH  25350.55126142  .00155828  00000+0  10911-2 0  9992", "line2": "2 65729  51.6242 116.2265 0007117 302.7560  57.2752 15.73199780 13768"}}, "geometry": {"type": "Point", "coordinates": [86.17149066568724, -26.769566888119044]}}, {"type": "Feature", "properties": {"norad_id": 65731, "name": "1998-067XK", "group": "stations", "lat": -36.434971598413206, "lon": -32.741751343803806, "alt_km": 370.2786784355267, "timestamp": "2025-12-17T19:34:06.822725+00:00", "meta": {"OBJECT_NAME": "1998-067XK", "OBJECT_ID": "1998-067XK", "EPOCH": "2025-12-17T07:52:39.640512", "MEAN_MOTION": 15.66619236, "ECCENTRICITY": 0.0004756, "INCLINATION": 51.6284, "RA_OF_ASC_NODE": 113.9366, "ARG_OF_PERICENTER": 276.4225, "MEAN_ANOMALY": 83.6229, "EPHEMERIS_TYPE": 0, "CLASSIFICATION_TYPE": "U", "NORAD_CAT_ID": 65731, "ELEMENT_SET_NO": 999, "REV_AT_EPOCH": 1386, "BSTAR": 0.00081077835, "MEAN_MOTION_DOT": 0.00087081, "MEAN_MOTION_DDOT": 0}, "tle": {"line1": "1 65731U 98067XK  25351.32823658  .00087081  00000+0  81078-3 0  9995", "line2": "2 65731  51.6284 113.9366 0004756 276.4225  83.6229 15.66619236 13862"}}, "geometry": {"type": "Point", "coordinates": [-32.741751343803806, -36.434971598413206]}}, {"type": "Feature", "properties": {"norad_id": 65732, "name": "RSP-03", "group": "stations", "lat": -49.879432835126465, "lon": 0.7466631986031925, "alt_km": 360.3386872052615, "timestamp": "2025-12-17T19:34:06.822735+00:00", "meta": {"OBJECT_NAME": "RSP-03", "OBJECT_ID": "1998-067XL", "EPOCH": "2025-12-16T14:58:29.275680", "MEAN_MOTION": 15.69615447, "ECCENTRICITY": 0.00056224, "INCLINATION": 51.6264, "RA_OF_ASC_NODE": 116.7219, "ARG_OF_PERICENTER": 277.262, "MEAN_ANOMALY": 82.7738, "EPHEMERIS_TYPE": 0, "CLASSIFICATION_TYPE": "U", "NORAD_CAT_ID": 65732, "ELEMENT_SET_NO": 999, "REV_AT_EPOCH": 1377, "BSTAR": 0.00094839264, "MEAN_MOTION_DOT": 0.00115729, "MEAN_MOTION_DDOT": 0}, "tle": {"line1": "1 65732U 98067XL  25350.62394995  .00115729  00000+0  94839-3 0  9995", "line2": "2 65732  51.6264 116.7219 0005622 277.2620  82.7738 15.69615447 13778"}}, "geometry": {"type": "Point", "coordinates": [0.7466631986031925, -49.879432835126465]}}, {"type": "Feature", "properties": {"norad_id": 65733, "name": "GHS-01", "group": "stations", "lat": -44.297144788025506, "lon": 58.41295745311079, "alt_km": 338.29832444899057, "timestamp": "2025-12-17T19:34:06.822745+00:00", "meta": {"OBJECT_NAME": "GHS-01", "OBJECT_ID": "1998-067XM", "EPOCH": "2025-12-17T01:34:57.772416", "MEAN_MOTION": 15.7670504, "ECCENTRICITY": 0.00077979, "INCLINATION": 51.6275, "RA_OF_ASC_NODE": 112.9208, "ARG_OF_PERICENTER": 309.7819, "MEAN_ANOMALY": 50.2494, "EPHEMERIS_TYPE": 0, "CLASSIFICATION_TYPE": "U", "NORAD_CAT_ID": 65733, "ELEMENT_SET_NO": 999, "REV_AT_EPOCH": 1386, "BSTAR": 0.0011963586, "MEAN_MOTION_DOT": 0.00200259, "MEAN_MOTION_DDOT": 0}, "tle": {"line1": "1 65733U 98067XM  25351.06594644  .00200259  00000+0  11964-2 0  9998", "line2": "2 65733  51.6275 112.9208 0007797 309.7819  50.2494 15.76705040 13869"}}, "geometry": {"type": "Point", "coordinates": [58.41295745311079, -44.297144788025506]}}, {"type": "Feature", "properties": {"norad_id": 65941, "name": "YOTSUBA-KULOVER", "group": "stations", "lat": -38.497861873182416, "lon": -26.483421300808295, "alt_km": 391.0059465478271, "timestamp": "2025-12-17T19:34:06.822757+00:00", "meta": {"OBJECT_NAME": "YOTSUBA-KULOVER", "OBJECT_ID": "1998-067XN", "EPOCH": "2025-12-16T14:54:10.853280", "MEAN_MOTION": 15.59985033, "ECCENTRICITY": 0.00014592, "INCLINATION": 51.6282, "RA_OF_ASC_NODE": 120.4613, "ARG_OF_PERICENTER": 292.17, "MEAN_ANOMALY": 67.9139, "EPHEMERIS_TYPE": 0, "CLASSIFICATION_TYPE": "U", "NORAD_CAT_ID": 65941, "ELEMENT_SET_NO": 999, "REV_AT_EPOCH": 1046, "BSTAR": 0.00069919558, "MEAN_MOTION_DOT": 0.00057497, "MEAN_MOTION_DDOT": 0}, "tle": {"line1": "1 65941U 98067XN  25350.62095895  .00057497  00000+0  69920-3 0  9994", "line2": "2 65941  51.6282 120.4613 0001459 292.1700  67.9139 15.59985033 10462"}}, "geometry": {"type": "Point", "coordinates": [-26.483421300808295, -38.497861873182416]}}, {"type": "Feature", "properties": {"norad_id": 65942, "name": "BOTAN", "group": "stations", "lat": -51.53183769305841, "lon": 19.4051186051416, "alt_km": 379.0446837873169, "timestamp": "2025-12-17T19:34:06.822768+00:00", "meta": {"OBJECT_NAME": "BOTAN", "OBJECT_ID": "1998-067XP", "EPOCH": "2025-12-17T01:33:35.223264", "MEAN_MOTION": 15.63787081, "ECCENTRICITY": 0.00028324, "INCLINATION": 51.6279, "RA_OF_ASC_NODE": 117.4271, "ARG_OF_PERICENTER": 275.6508, "MEAN_ANOMALY": 84.4163, "EPHEMERIS_TYPE": 0, "CLASSIFICATION_TYPE": "U", "NORAD_CAT_ID": 65942, "ELEMENT_SET_NO": 999, "REV_AT_EPOCH": 1054, "BSTAR": 0.0010066174, "MEAN_MOTION_DOT": 0.00096733, "MEAN_MOTION_DDOT": 0}, "tle": {"line1": "1 65942U 98067XP  25351.06499101  .00096733  00000+0  10066-2 0  9994", "line2": "2 65942  51.6279 117.4271 0002832 275.6508  84.4163 15.63787081 10541"}}, "geometry": {"type": "Point", "coordinates": [19.4051186051416, -51.53183769305841]}}, {"type": "Feature", "properties": {"norad_id": 65943, "name": "E-KAGAKU-1", "group": "stations", "lat": -38.07064317176202, "lon": -27.185761346729596, "alt_km": 390.45179404854116, "timestamp": "2025-12-17T19:34:06.822778+00:00", "meta": {"OBJECT_NAME": "E-KAGAKU-1", "OBJECT_ID": "1998-067XQ", "EPOCH": "2025-12-15T15:50:32.577792", "MEAN_MOTION": 15.59851021, "ECCENTRICITY": 0.00016366, "INCLINATION": 51.6292, "RA_OF_ASC_NODE": 125.299, "ARG_OF_PERICENTER": 221.4661, "MEAN_ANOMALY": 138.6208, "EPHEMERIS_TYPE": 0, "CLASSIFICATION_TYPE": "U", "NORAD_CAT_ID": 65943, "ELEMENT_SET_NO": 999, "REV_AT_EPOCH": 1031, "BSTAR": 0.0006409113, "MEAN_MOTION_DOT": 0.00052357, "MEAN_MOTION_DDOT": 0}, "tle": {"line1": "1 65943U 98067XQ  25349.66009928  .00052357  00000+0  64091-3 0  9994", "line2": "2 65943  51.6292 125.2990 0001636 221.4661 138.6208 15.59851021 10310"}}, "geometry": {"type": "Point", "coordinates": [-27.185761346729596, -38.07064317176202]}}]}